CCSDS_OMM_VERS = 2.0
CREATION_DATE  = 
ORIGINATOR     = 

OBJECT_NAME    = SL-14 R/B
OBJECT_ID      = 1986-046B
CENTER_NAME    = EARTH
REF_FRAME      = TEME
TIME_SYSTEM    = UTC
MEAN_ELEMENT_THEORY = SGP/SGP4

EPOCH          = 2025-12-05T21:52:05.082816
MEAN_MOTION    = 14.85473315
ECCENTRICITY   = .00232125
INCLINATION    = 82.4812
RA_OF_ASC_NODE = 168.7632
ARG_OF_PERICENTER = 174.4221
MEAN_ANOMALY   = 185.7258

EPHEMERIS_TYPE = 0
CLASSIFICATION_TYPE = U
NORAD_CAT_ID   = 16792
ELEMENT_SET_NO = 999
REV_AT_EPOCH   = 11248
BSTAR          = .99777346E-4
MEAN_MOTION_DOT = .889E-5
MEAN_MOTION_DDOT = 0

CCSDS_OMM_VERS = 2.0
CREATION_DATE  = 
ORIGINATOR     = 

OBJECT_NAME    = SL-14 R/B
OBJECT_ID      = 1986-055B
CENTER_NAME    = EARTH
REF_FRAME      = TEME
TIME_SYSTEM    = UTC
MEAN_ELEMENT_THEORY = SGP/SGP4

EPOCH          = 2025-12-05T21:36:13.963104
MEAN_MOTION    = 14.85520700
ECCENTRICITY   = .00175296
INCLINATION    = 82.5212
RA_OF_ASC_NODE = 214.7992
ARG_OF_PERICENTER = 284.0277
MEAN_ANOMALY   = 86.6276

EPHEMERIS_TYPE = 0
CLASSIFICATION_TYPE = U
NORAD_CAT_ID   = 16882
ELEMENT_SET_NO = 999
REV_AT_EPOCH   = 10544
BSTAR          = .99995351E-4
MEAN_MOTION_DOT = .889E-5
MEAN_MOTION_DDOT = 0

CCSDS_OMM_VERS = 2.0
CREATION_DATE  = 
ORIGINATOR     = 

OBJECT_NAME    = AJISAI (EGS)
OBJECT_ID      = 1986-061A
CENTER_NAME    = EARTH
REF_FRAME      = TEME
TIME_SYSTEM    = UTC
MEAN_ELEMENT_THEORY = SGP/SGP4

EPOCH          = 2025-12-05T21:55:42.308832
MEAN_MOTION    = 12.44514159
ECCENTRICITY   = .00112729
INCLINATION    = 50.0114
RA_OF_ASC_NODE = 21.7067
ARG_OF_PERICENTER = 48.7549
MEAN_ANOMALY   = 5.9698

EPHEMERIS_TYPE = 0
CLASSIFICATION_TYPE = U
NORAD_CAT_ID   = 16908
ELEMENT_SET_NO = 999
REV_AT_EPOCH   = 45632
BSTAR          = .68480162E-4
MEAN_MOTION_DOT = -.88E-6
MEAN_MOTION_DDOT = 0

CCSDS_OMM_VERS = 2.0
CREATION_DATE  = 
ORIGINATOR     = 

OBJECT_NAME    = COSMOS 1812
OBJECT_ID      = 1987-003A
CENTER_NAME    = EARTH
REF_FRAME      = TEME
TIME_SYSTEM    = UTC
MEAN_ELEMENT_THEORY = SGP/SGP4

EPOCH          = 2025-12-05T22:20:08.650752
MEAN_MOTION    = 15.73843890
ECCENTRICITY   = .00072541
INCLINATION    = 82.4872
RA_OF_ASC_NODE = 299.3770
ARG_OF_PERICENTER = 95.5131
MEAN_ANOMALY   = 264.6960

EPHEMERIS_TYPE = 0
CLASSIFICATION_TYPE = U
NORAD_CAT_ID   = 17295
ELEMENT_SET_NO = 999
REV_AT_EPOCH   = 12958
BSTAR          = .79310701E-3
MEAN_MOTION_DOT = .113274E-2
MEAN_MOTION_DDOT = 0

CCSDS_OMM_VERS = 2.0
CREATION_DATE  = 
ORIGINATOR     = 

OBJECT_NAME    = SL-14 R/B
OBJECT_ID      = 1987-024B
CENTER_NAME    = EARTH
REF_FRAME      = TEME
TIME_SYSTEM    = UTC
MEAN_ELEMENT_THEORY = SGP/SGP4

EPOCH          = 2025-12-05T15:24:19.699488
MEAN_MOTION    = 14.86012998
ECCENTRICITY   = .0017488
INCLINATION    = 82.5280
RA_OF_ASC_NODE = 181.1221
ARG_OF_PERICENTER = 208.3779
MEAN_ANOMALY   = 151.6487

EPHEMERIS_TYPE = 0
CLASSIFICATION_TYPE = U
NORAD_CAT_ID   = 17567
ELEMENT_SET_NO = 999
REV_AT_EPOCH   = 7416
BSTAR          = .96195096E-4
MEAN_MOTION_DOT = .867E-5
MEAN_MOTION_DDOT = 0

CCSDS_OMM_VERS = 2.0
CREATION_DATE  = 
ORIGINATOR     = 

OBJECT_NAME    = COSMOS 1833
OBJECT_ID      = 1987-027A
CENTER_NAME    = EARTH
REF_FRAME      = TEME
TIME_SYSTEM    = UTC
MEAN_ELEMENT_THEORY = SGP/SGP4

EPOCH          = 2025-12-05T22:07:26.105088
MEAN_MOTION    = 14.13019181
ECCENTRICITY   = .00222457
INCLINATION    = 70.9132
RA_OF_ASC_NODE = 163.1100
ARG_OF_PERICENTER = 341.2879
MEAN_ANOMALY   = 18.7422

EPHEMERIS_TYPE = 0
CLASSIFICATION_TYPE = U
NORAD_CAT_ID   = 17589
ELEMENT_SET_NO = 999
REV_AT_EPOCH   = 99706
BSTAR          = .66143925E-4
MEAN_MOTION_DOT = .76E-6
MEAN_MOTION_DDOT = 0

CCSDS_OMM_VERS = 2.0
CREATION_DATE  = 
ORIGINATOR     = 

OBJECT_NAME    = SL-16 R/B
OBJECT_ID      = 1987-027B
CENTER_NAME    = EARTH
REF_FRAME      = TEME
TIME_SYSTEM    = UTC
MEAN_ELEMENT_THEORY = SGP/SGP4

EPOCH          = 2025-12-05T19:32:54.887424
MEAN_MOTION    = 14.17152541
ECCENTRICITY   = .00075235
INCLINATION    = 71.0024
RA_OF_ASC_NODE = 114.3103
ARG_OF_PERICENTER = 267.0132
MEAN_ANOMALY   = 93.0131

EPHEMERIS_TYPE = 0
CLASSIFICATION_TYPE = U
NORAD_CAT_ID   = 17590
ELEMENT_SET_NO = 999
REV_AT_EPOCH   = 204
BSTAR          = -.14924992E-4
MEAN_MOTION_DOT = -.78E-6
MEAN_MOTION_DDOT = 0

CCSDS_OMM_VERS = 2.0
CREATION_DATE  = 
ORIGINATOR     = 

OBJECT_NAME    = SL-14 R/B
OBJECT_ID      = 1987-038B
CENTER_NAME    = EARTH
REF_FRAME      = TEME
TIME_SYSTEM    = UTC
MEAN_ELEMENT_THEORY = SGP/SGP4

EPOCH          = 2025-12-05T20:35:35.071584
MEAN_MOTION    = 14.85251883
ECCENTRICITY   = .00207472
INCLINATION    = 82.5023
RA_OF_ASC_NODE = 25.1825
ARG_OF_PERICENTER = 113.2129
MEAN_ANOMALY   = 247.1275

EPHEMERIS_TYPE = 0
CLASSIFICATION_TYPE = U
NORAD_CAT_ID   = 17912
ELEMENT_SET_NO = 999
REV_AT_EPOCH   = 6530
BSTAR          = .9697556E-4
MEAN_MOTION_DOT = .859E-5
MEAN_MOTION_DDOT = 0

CCSDS_OMM_VERS = 2.0
CREATION_DATE  = 
ORIGINATOR     = 

OBJECT_NAME    = COSMOS 1844
OBJECT_ID      = 1987-041A
CENTER_NAME    = EARTH
REF_FRAME      = TEME
TIME_SYSTEM    = UTC
MEAN_ELEMENT_THEORY = SGP/SGP4

EPOCH          = 2025-12-05T23:38:58.657632
MEAN_MOTION    = 14.14527118
ECCENTRICITY   = .00302809
INCLINATION    = 70.8986
RA_OF_ASC_NODE = 231.8169
ARG_OF_PERICENTER = 167.9774
MEAN_ANOMALY   = 192.2078

EPHEMERIS_TYPE = 0
CLASSIFICATION_TYPE = U
NORAD_CAT_ID   = 17973
ELEMENT_SET_NO = 999
REV_AT_EPOCH   = 99033
BSTAR          = -.40765795E-4
MEAN_MOTION_DOT = -.127E-5
MEAN_MOTION_DDOT = 0

CCSDS_OMM_VERS = 2.0
CREATION_DATE  = 
ORIGINATOR     = 

OBJECT_NAME    = SL-14 R/B
OBJECT_ID      = 1987-055B
CENTER_NAME    = EARTH
REF_FRAME      = TEME
TIME_SYSTEM    = UTC
MEAN_ELEMENT_THEORY = SGP/SGP4

EPOCH          = 2025-12-05T18:48:38.071008
MEAN_MOTION    = 14.85509964
ECCENTRICITY   = .00198673
INCLINATION    = 82.5000
RA_OF_ASC_NODE = 77.5434
ARG_OF_PERICENTER = 327.5248
MEAN_ANOMALY   = 32.4744

EPHEMERIS_TYPE = 0
CLASSIFICATION_TYPE = U
NORAD_CAT_ID   = 18153
ELEMENT_SET_NO = 999
REV_AT_EPOCH   = 5599
BSTAR          = .10855483E-3
MEAN_MOTION_DOT = .964E-5
MEAN_MOTION_DDOT = 0

CCSDS_OMM_VERS = 2.0
CREATION_DATE  = 
ORIGINATOR     = 

OBJECT_NAME    = COSMOS 1867
OBJECT_ID      = 1987-060A
CENTER_NAME    = EARTH
REF_FRAME      = TEME
TIME_SYSTEM    = UTC
MEAN_ELEMENT_THEORY = SGP/SGP4

EPOCH          = 2025-12-05T23:10:56.873856
MEAN_MOTION    = 14.31484509
ECCENTRICITY   = .001364
INCLINATION    = 65.0097
RA_OF_ASC_NODE = 209.1720
ARG_OF_PERICENTER = 270.4453
MEAN_ANOMALY   = 89.5069

EPHEMERIS_TYPE = 0
CLASSIFICATION_TYPE = U
NORAD_CAT_ID   = 18187
ELEMENT_SET_NO = 999
REV_AT_EPOCH   = 652
BSTAR          = .51487543E-4
MEAN_MOTION_DOT = .37E-6
MEAN_MOTION_DDOT = 0

CCSDS_OMM_VERS = 2.0
CREATION_DATE  = 
ORIGINATOR     = 

OBJECT_NAME    = SL-14 R/B
OBJECT_ID      = 1988-001B
CENTER_NAME    = EARTH
REF_FRAME      = TEME
TIME_SYSTEM    = UTC
MEAN_ELEMENT_THEORY = SGP/SGP4

EPOCH          = 2025-12-05T21:46:57.353664
MEAN_MOTION    = 14.85412401
ECCENTRICITY   = .00178571
INCLINATION    = 82.5127
RA_OF_ASC_NODE = 283.5735
ARG_OF_PERICENTER = 183.5615
MEAN_ANOMALY   = 176.5478

EPHEMERIS_TYPE = 0
CLASSIFICATION_TYPE = U
NORAD_CAT_ID   = 18749
ELEMENT_SET_NO = 999
REV_AT_EPOCH   = 2810
BSTAR          = .10661902E-3
MEAN_MOTION_DOT = .944E-5
MEAN_MOTION_DDOT = 0

