SL-14 R/B               
1 16792U 86046B   25339.91116994  .00000889  00000+0  99777-4 0  9998
2 16792  82.4812 168.7632 0023212 174.4221 185.7258 14.85473315112489
SL-14 R/B               
1 16882U 86055B   25339.90016161  .00000889  00000+0  99995-4 0  9994
2 16882  82.5212 214.7992 0017529 284.0277  86.6276 14.85520700105446
AJISAI (EGS)            
1 16908U 86061A   25339.91368413 -.00000088  00000+0  68480-4 0  9998
2 16908  50.0114  21.7067 0011272  48.7549   5.9698 12.44514159456323
COSMOS 1812             
1 17295U 87003A   25339.93065568  .00113274  00000+0  79311-3 0  9997
2 17295  82.4872 299.3770 0007254  95.5131 264.6960 15.73843890129582
SL-14 R/B               
1 17567U 87024B   25339.64189467  .00000867  00000+0  96195-4 0  9998
2 17567  82.5280 181.1221 0017488 208.3779 151.6487 14.86012998 74161
COSMOS 1833             
1 17589U 87027A   25339.92182992  .00000076  00000+0  66144-4 0  9995
2 17589  70.9132 163.1100 0022245 341.2879  18.7422 14.13019181997069
SL-16 R/B               
1 17590U 87027B   25339.81452416 -.00000078  00000+0 -14925-4 0  9990
2 17590  71.0024 114.3103 0007523 267.0132  93.0131 14.17152541  2043
SL-14 R/B               
1 17912U 87038B   25339.85804481  .00000859  00000+0  96976-4 0  9998
2 17912  82.5023  25.1825 0020747 113.2129 247.1275 14.85251883 65301
COSMOS 1844             
1 17973U 87041A   25339.98540113 -.00000127  00000+0 -40766-4 0  9998
2 17973  70.8986 231.8169 0030280 167.9774 192.2078 14.14527118990338
SL-14 R/B               
1 18153U 87055B   25339.78377397  .00000964  00000+0  10855-3 0  9996
2 18153  82.5000  77.5434 0019867 327.5248  32.4744 14.85509964 55990
COSMOS 1867             
1 18187U 87060A   25339.96593604  .00000037  00000+0  51488-4 0  9999
2 18187  65.0097 209.1720 0013640 270.4453  89.5069 14.31484509  6523
SL-14 R/B               
1 18749U 88001B   25339.90760826  .00000944  00000+0  10662-3 0  9990
2 18749  82.5127 283.5735 0017857 183.5615 176.5478 14.85412401 28105
